CCSDS_OMM_VERS = 2.0
CREATION_DATE  = 
ORIGINATOR     = 

OBJECT_NAME    = ATLAS CENTAUR R/B
OBJECT_ID      = 1972-065B
CENTER_NAME    = EARTH
REF_FRAME      = TEME
TIME_SYSTEM    = UTC
MEAN_ELEMENT_THEORY = SGP/SGP4

EPOCH          = 2026-03-05T23:27:17.769600
MEAN_MOTION    = 14.77674465
ECCENTRICITY   = .00339663
INCLINATION    = 35.0026
RA_OF_ASC_NODE = 327.5097
ARG_OF_PERICENTER = 337.6368
MEAN_ANOMALY   = 22.2852

EPHEMERIS_TYPE = 0
CLASSIFICATION_TYPE = U
NORAD_CAT_ID   = 6155
ELEMENT_SET_NO = 999
REV_AT_EPOCH   = 84071
BSTAR          = .22302878E-3
MEAN_MOTION_DOT = .1615E-4
MEAN_MOTION_DDOT = 0

CCSDS_OMM_VERS = 2.0
CREATION_DATE  = 
ORIGINATOR     = 

OBJECT_NAME    = SL-8 R/B
OBJECT_ID      = 1975-112B
CENTER_NAME    = EARTH
REF_FRAME      = TEME
TIME_SYSTEM    = UTC
MEAN_ELEMENT_THEORY = SGP/SGP4

EPOCH          = 2026-03-06T07:16:49.766592
MEAN_MOTION    = 14.38201355
ECCENTRICITY   = .0014505
INCLINATION    = 74.0622
RA_OF_ASC_NODE = 25.1406
ARG_OF_PERICENTER = 119.8658
MEAN_ANOMALY   = 240.3940

EPHEMERIS_TYPE = 0
CLASSIFICATION_TYPE = U
NORAD_CAT_ID   = 8459
ELEMENT_SET_NO = 999
REV_AT_EPOCH   = 63138
BSTAR          = .11987073E-3
MEAN_MOTION_DOT = .338E-5
MEAN_MOTION_DDOT = 0

CCSDS_OMM_VERS = 2.0
CREATION_DATE  = 
ORIGINATOR     = 

OBJECT_NAME    = SL-3 R/B
OBJECT_ID      = 1977-057B
CENTER_NAME    = EARTH
REF_FRAME      = TEME
TIME_SYSTEM    = UTC
MEAN_ELEMENT_THEORY = SGP/SGP4

EPOCH          = 2026-03-06T05:20:28.796064
MEAN_MOTION    = 15.45373731
ECCENTRICITY   = .00062399
INCLINATION    = 97.5767
RA_OF_ASC_NODE = 236.9910
ARG_OF_PERICENTER = 299.7948
MEAN_ANOMALY   = 60.2679

EPHEMERIS_TYPE = 0
CLASSIFICATION_TYPE = U
NORAD_CAT_ID   = 10114
ELEMENT_SET_NO = 999
REV_AT_EPOCH   = 66779
BSTAR          = .30266389E-3
MEAN_MOTION_DOT = .14375E-3
MEAN_MOTION_DDOT = 0

CCSDS_OMM_VERS = 2.0
CREATION_DATE  = 
ORIGINATOR     = 

OBJECT_NAME    = SEASAT 1
OBJECT_ID      = 1978-064A
CENTER_NAME    = EARTH
REF_FRAME      = TEME
TIME_SYSTEM    = UTC
MEAN_ELEMENT_THEORY = SGP/SGP4

EPOCH          = 2026-03-06T02:33:36.668160
MEAN_MOTION    = 14.46156438
ECCENTRICITY   = .00022475
INCLINATION    = 108.0117
RA_OF_ASC_NODE = 117.9811
ARG_OF_PERICENTER = 286.5317
MEAN_ANOMALY   = 73.5582

EPHEMERIS_TYPE = 0
CLASSIFICATION_TYPE = U
NORAD_CAT_ID   = 10967
ELEMENT_SET_NO = 999
REV_AT_EPOCH   = 50599
BSTAR          = .10489425E-3
MEAN_MOTION_DOT = .238E-5
MEAN_MOTION_DDOT = 0

CCSDS_OMM_VERS = 2.0
CREATION_DATE  = 
ORIGINATOR     = 

OBJECT_NAME    = SL-14 R/B
OBJECT_ID      = 1979-011B
CENTER_NAME    = EARTH
REF_FRAME      = TEME
TIME_SYSTEM    = UTC
MEAN_ELEMENT_THEORY = SGP/SGP4

EPOCH          = 2026-03-06T03:50:16.683648
MEAN_MOTION    = 14.91903020
ECCENTRICITY   = .00175521
INCLINATION    = 82.5212
RA_OF_ASC_NODE = 99.9212
ARG_OF_PERICENTER = 71.3838
MEAN_ANOMALY   = 288.9286

EPHEMERIS_TYPE = 0
CLASSIFICATION_TYPE = U
NORAD_CAT_ID   = 11267
ELEMENT_SET_NO = 999
REV_AT_EPOCH   = 52825
BSTAR          = .62069768E-4
MEAN_MOTION_DOT = .655E-5
MEAN_MOTION_DDOT = 0

CCSDS_OMM_VERS = 2.0
CREATION_DATE  = 
ORIGINATOR     = 

OBJECT_NAME    = SL-8 R/B
OBJECT_ID      = 1979-089B
CENTER_NAME    = EARTH
REF_FRAME      = TEME
TIME_SYSTEM    = UTC
MEAN_ELEMENT_THEORY = SGP/SGP4

EPOCH          = 2026-03-06T06:39:39.024864
MEAN_MOTION    = 14.42348070
ECCENTRICITY   = .00171467
INCLINATION    = 74.0671
RA_OF_ASC_NODE = 97.3610
ARG_OF_PERICENTER = 270.3782
MEAN_ANOMALY   = 89.5410

EPHEMERIS_TYPE = 0
CLASSIFICATION_TYPE = U
NORAD_CAT_ID   = 11574
ELEMENT_SET_NO = 999
REV_AT_EPOCH   = 43561
BSTAR          = .11726653E-3
MEAN_MOTION_DOT = .362E-5
MEAN_MOTION_DDOT = 0

CCSDS_OMM_VERS = 2.0
CREATION_DATE  = 
ORIGINATOR     = 

OBJECT_NAME    = SL-14 R/B
OBJECT_ID      = 1980-005B
CENTER_NAME    = EARTH
REF_FRAME      = TEME
TIME_SYSTEM    = UTC
MEAN_ELEMENT_THEORY = SGP/SGP4

EPOCH          = 2026-03-06T04:05:41.205984
MEAN_MOTION    = 14.90925667
ECCENTRICITY   = .001588
INCLINATION    = 82.5152
RA_OF_ASC_NODE = 310.5743
ARG_OF_PERICENTER = 169.7048
MEAN_ANOMALY   = 190.4500

EPHEMERIS_TYPE = 0
CLASSIFICATION_TYPE = U
NORAD_CAT_ID   = 11672
ELEMENT_SET_NO = 999
REV_AT_EPOCH   = 47596
BSTAR          = .76182126E-4
MEAN_MOTION_DOT = .778E-5
MEAN_MOTION_DDOT = 0

CCSDS_OMM_VERS = 2.0
CREATION_DATE  = 
ORIGINATOR     = 

OBJECT_NAME    = SL-8 R/B
OBJECT_ID      = 1981-003B
CENTER_NAME    = EARTH
REF_FRAME      = TEME
TIME_SYSTEM    = UTC
MEAN_ELEMENT_THEORY = SGP/SGP4

EPOCH          = 2026-03-06T02:14:08.587680
MEAN_MOTION    = 15.10802212
ECCENTRICITY   = .02625413
INCLINATION    = 82.9382
RA_OF_ASC_NODE = 293.3501
ARG_OF_PERICENTER = 191.1298
MEAN_ANOMALY   = 168.4063

EPHEMERIS_TYPE = 0
CLASSIFICATION_TYPE = U
NORAD_CAT_ID   = 12139
ELEMENT_SET_NO = 999
REV_AT_EPOCH   = 31413
BSTAR          = .51595727E-3
MEAN_MOTION_DOT = .20037E-3
MEAN_MOTION_DDOT = 0

CCSDS_OMM_VERS = 2.0
CREATION_DATE  = 
ORIGINATOR     = 

OBJECT_NAME    = SL-3 R/B
OBJECT_ID      = 1981-046B
CENTER_NAME    = EARTH
REF_FRAME      = TEME
TIME_SYSTEM    = UTC
MEAN_ELEMENT_THEORY = SGP/SGP4

EPOCH          = 2026-03-06T05:10:02.084160
MEAN_MOTION    = 15.41884845
ECCENTRICITY   = .0019834
INCLINATION    = 81.2300
RA_OF_ASC_NODE = 293.9167
ARG_OF_PERICENTER = 34.1350
MEAN_ANOMALY   = 326.1163

EPHEMERIS_TYPE = 0
CLASSIFICATION_TYPE = U
NORAD_CAT_ID   = 12465
ELEMENT_SET_NO = 999
REV_AT_EPOCH   = 43789
BSTAR          = .30376129E-3
MEAN_MOTION_DOT = .13023E-3
MEAN_MOTION_DDOT = 0

CCSDS_OMM_VERS = 2.0
CREATION_DATE  = 
ORIGINATOR     = 

OBJECT_NAME    = SL-3 R/B
OBJECT_ID      = 1981-103B
CENTER_NAME    = EARTH
REF_FRAME      = TEME
TIME_SYSTEM    = UTC
MEAN_ELEMENT_THEORY = SGP/SGP4

EPOCH          = 2026-03-06T06:52:25.887936
MEAN_MOTION    = 15.21326452
ECCENTRICITY   = .00124924
INCLINATION    = 81.1584
RA_OF_ASC_NODE = 217.4240
ARG_OF_PERICENTER = 298.7704
MEAN_ANOMALY   = 61.2272

EPHEMERIS_TYPE = 0
CLASSIFICATION_TYPE = U
NORAD_CAT_ID   = 12904
ELEMENT_SET_NO = 999
REV_AT_EPOCH   = 97271
BSTAR          = .3262523E-3
MEAN_MOTION_DOT = .7342E-4
MEAN_MOTION_DDOT = 0

CCSDS_OMM_VERS = 2.0
CREATION_DATE  = 
ORIGINATOR     = 

OBJECT_NAME    = SL-3 R/B
OBJECT_ID      = 1982-013B
CENTER_NAME    = EARTH
REF_FRAME      = TEME
TIME_SYSTEM    = UTC
MEAN_ELEMENT_THEORY = SGP/SGP4

EPOCH          = 2026-03-06T05:31:26.109120
MEAN_MOTION    = 15.21972828
ECCENTRICITY   = .0022428
INCLINATION    = 81.1765
RA_OF_ASC_NODE = 164.8242
ARG_OF_PERICENTER = 188.9455
MEAN_ANOMALY   = 171.1381

EPHEMERIS_TYPE = 0
CLASSIFICATION_TYPE = U
NORAD_CAT_ID   = 13068
ELEMENT_SET_NO = 999
REV_AT_EPOCH   = 40382
BSTAR          = .27438147E-3
MEAN_MOTION_DOT = .6327E-4
MEAN_MOTION_DDOT = 0

CCSDS_OMM_VERS = 2.0
CREATION_DATE  = 
ORIGINATOR     = 

OBJECT_NAME    = SL-3 R/B
OBJECT_ID      = 1982-039B
CENTER_NAME    = EARTH
REF_FRAME      = TEME
TIME_SYSTEM    = UTC
MEAN_ELEMENT_THEORY = SGP/SGP4

EPOCH          = 2026-03-06T05:04:05.450016
MEAN_MOTION    = 15.10055979
ECCENTRICITY   = .00298152
INCLINATION    = 81.1583
RA_OF_ASC_NODE = 219.9721
ARG_OF_PERICENTER = 335.7740
MEAN_ANOMALY   = 24.2081

EPHEMERIS_TYPE = 0
CLASSIFICATION_TYPE = U
NORAD_CAT_ID   = 13154
ELEMENT_SET_NO = 999
REV_AT_EPOCH   = 38111
BSTAR          = .21657814E-3
MEAN_MOTION_DOT = .3583E-4
MEAN_MOTION_DDOT = 0

