ATLAS CENTAUR R/B       
1 06155U 72065B   26064.97728900  .00001615  00000+0  22303-3 0  9992
2 06155  35.0026 327.5097 0033966 337.6368  22.2852 14.77674465840713
SL-8 R/B                
1 08459U 75112B   26065.30335378  .00000338  00000+0  11987-3 0  9995
2 08459  74.0622  25.1406 0014505 119.8658 240.3940 14.38201355631385
SL-3 R/B                
1 10114U 77057B   26065.22255551  .00014375  00000+0  30266-3 0  9998
2 10114  97.5767 236.9910 0006239 299.7948  60.2679 15.45373731667792
SEASAT 1                
1 10967U 78064A   26065.10667440  .00000238  00000+0  10489-3 0  9992
2 10967 108.0117 117.9811 0002247 286.5317  73.5582 14.46156438505998
SL-14 R/B               
1 11267U 79011B   26065.15991532  .00000655  00000+0  62070-4 0  9993
2 11267  82.5212  99.9212 0017552  71.3838 288.9286 14.91903020528255
SL-8 R/B                
1 11574U 79089B   26065.27753501  .00000362  00000+0  11727-3 0  9991
2 11574  74.0671  97.3610 0017146 270.3782  89.5410 14.42348070435618
SL-14 R/B               
1 11672U 80005B   26065.17061581  .00000778  00000+0  76182-4 0  9997
2 11672  82.5152 310.5743 0015880 169.7048 190.4500 14.90925667475961
SL-8 R/B                
1 12139U 81003B   26065.09315495  .00020037  00000+0  51596-3 0  9993
2 12139  82.9382 293.3501 0262541 191.1298 168.4063 15.10802212314136
SL-3 R/B                
1 12465U 81046B   26065.21530190  .00013023  00000+0  30376-3 0  9997
2 12465  81.2300 293.9167 0019834  34.1350 326.1163 15.41884845437893
SL-3 R/B                
1 12904U 81103B   26065.28641074  .00007342  00000+0  32625-3 0  9996
2 12904  81.1584 217.4240 0012492 298.7704  61.2272 15.21326452972717
SL-3 R/B                
1 13068U 82013B   26065.23016330  .00006327  00000+0  27438-3 0  9993
2 13068  81.1765 164.8242 0022428 188.9455 171.1381 15.21972828403827
SL-3 R/B                
1 13154U 82039B   26065.21117419  .00003583  00000+0  21658-3 0  9994
2 13154  81.1583 219.9721 0029815 335.7740  24.2081 15.10055979381110
